[Satellite]
VERSION=1.1
NAME=AEROCUBE 8C
NICKNAME=AEROCUBE 8C
TLE1=1 41853U 16067F   18021.19955134  .00000075  00000-0  12028-4 0  9999
TLE2=2 41853  97.9342 107.2394 0008745 300.0301  60.0052 14.96364675 65098
